ONEWEB-0338             
1 49204U 21083U   23309.96051106  .00000081  00000+0  16699-3 0  9990
2 49204  87.9157 104.4247 0001179  79.2971 280.8295 13.20771338112152
ONEWEB-0339             
1 49205U 21083V   23310.45943739  .00002925  00000+0  79743-2 0  9996
2 49205  87.8987 150.0229 0001869  74.1406 285.9929 13.13455958106997
ONEWEB-0340             
1 49206U 21083W   23310.13842899  .00001779  00000+0  44803-2 0  9992
2 49206  87.9176 165.2413 0001864  88.5416 271.5930 13.18675320105520
ONEWEB-0341             
1 49207U 21083X   23310.37447867 -.00000022  00000+0 -87823-4 0  9998
2 49207  87.9249 165.1839 0001067 110.9800 249.1446 13.18686476105577
ONEWEB-0342             
1 49208U 21083Y   23309.89105915 -.00000869  00000+0 -21704-2 0  9992
2 49208  87.9146 104.4673 0001565  84.9922 275.1390 13.20776422110818
ONEWEB-0343             
1 49209U 21083Z   23310.29438579 -.00000822  00000+0 -21171-2 0  9991
2 49209  87.9232 165.2257 0000630 124.9153 235.2039 13.18690597105615
ONEWEB-0344             
1 49210U 21083AA  23310.11978378 -.00000591  00000+0 -16528-2 0  9993
2 49210  87.8993 150.0964 0001682  89.3723 270.7598 13.13469949106954
ONEWEB-0345             
1 49211U 21083AB  23309.60454448 -.00000074  00000+0 -23760-3 0  9996
2 49211  87.8993 150.1848 0001675 107.6717 252.4595 13.13470241105596
